{
    "CCSDS_OMM_VERS": "3.0",
    "COMMENT": "GENERATED VIA SPACE-TRACK.ORG API",
    "CREATION_DATE": "2025-05-22T17:14:14",
    "ORIGINATOR": "18 SPCS",
    "OBJECT_NAME": "BEIDOU 3M12",
    "OBJECT_ID": "2018-067B",
    "CENTER_NAME": "EARTH",
    "REF_FRAME": "TEME",
    "TIME_SYSTEM": "UTC",
    "MEAN_ELEMENT_THEORY": "SGP4",
    "EPOCH": "2025-05-22T03:17:19.458528",
    "MEAN_MOTION": "1.86227269",
    "ECCENTRICITY": "0.00039520",
    "INCLINATION": "54.1900",
    "RA_OF_ASC_NODE": "194.2656",
    "ARG_OF_PERICENTER": "10.1838",
    "MEAN_ANOMALY": "349.9051",
    "EPHEMERIS_TYPE": "0",
    "CLASSIFICATION_TYPE": "U",
    "NORAD_CAT_ID": "43603",
    "ELEMENT_SET_NO": "999",
    "REV_AT_EPOCH": "4586",
    "BSTAR": "0.00000000000000",
    "MEAN_MOTION_DOT": "0.00000075",
    "MEAN_MOTION_DDOT": "0.0000000000000",
    "SEMIMAJOR_AXIS": "27906.561",
    "PERIOD": "773.249",
    "APOAPSIS": "21539.455",
    "PERIAPSIS": "21517.398",
    "OBJECT_TYPE": "PAYLOAD",
    "RCS_SIZE": "LARGE",
    "COUNTRY_CODE": "PRC",
    "LAUNCH_DATE": "2018-08-24",
    "SITE": "XSC",
    "DECAY_DATE": null,
    "FILE": "4736220",
    "GP_ID": "288144557",
    "TLE_LINE0": "0 BEIDOU 3M12",
    "TLE_LINE1": "1 43603U 18067B   25142.13703077  .00000075  00000-0  00000-0 0  9992",
    "TLE_LINE2": "2 43603  54.1900 194.2656 0003952  10.1838 349.9051  1.86227269 45867"
}